{"type": "FeatureCollection", "features": [ {"type": "Feature", "properties": {"norad_id": 57401, "name": "TIANMU-1 09", "group": "weather", "lat": -82.71355614605557, "lon": 135.38601110499462, "alt_km": 492.356731973935, "timestamp": "2025-12-21T16:47:54.372115+00:00", "meta": {"OBJECT_NAME": "TIANMU-1 09", "OBJECT_ID": "2023-101C", "EPOCH": "2025-12-21T12:28:40.465920", "MEAN_MOTION": 15.28201704, "ECCENTRICITY": 0.0006446, "INCLINATION": 97.2808, "RA_OF_ASC_NODE": 44.4815, "ARG_OF_PERICENTER": 59.7686, "MEAN_ANOMALY": 300.4191, "EPHEMERIS_TYPE": 0, "CLASSIFICATION_TYPE": "U", "NORAD_CAT_ID": 57401, "ELEMENT_SET_NO": 999, "REV_AT_EPOCH": 13449, "BSTAR": 0.00020695, "MEAN_MOTION_DOT": 5.618e-05, "MEAN_MOTION_DDOT": 0}, "tle": {"line1": "1 57401U 23101C   25355.51991280  .00005618  00000+0  20695-3 0  9993", "line2": "2 57401  97.2808  44.4815 0006446  59.7686 300.4191 15.28201704134499"}}, "geometry": {"type": "Point", "coordinates": [135.38601110499462, -82.71355614605557]}}, {"type": "Feature", "properties": {"norad_id": 57402, "name": "TIANMU-1 10", "group": "weather", "lat": 78.90698210111289, "lon": 4.762761645066364, "alt_km": 468.77274366961683, "timestamp": "2025-12-21T16:47:54.372125+00:00", "meta": {"OBJECT_NAME": "TIANMU-1 10", "OBJECT_ID": "2023-101D", "EPOCH": "2025-12-21T11:43:43.128768", "MEAN_MOTION": 15.28192894, "ECCENTRICITY": 0.0008175, "INCLINATION": 97.2888, "RA_OF_ASC_NODE": 45.3101, "ARG_OF_PERICENTER": 58.0304, "MEAN_ANOMALY": 302.173, "EPHEMERIS_TYPE": 0, "CLASSIFICATION_TYPE": "U", "NORAD_CAT_ID": 57402, "ELEMENT_SET_NO": 999, "REV_AT_EPOCH": 13448, "BSTAR": 0.00021818, "MEAN_MOTION_DOT": 5.927e-05, "MEAN_MOTION_DDOT": 0}, "tle": {"line1": "1 57402U 23101D   25355.48869362  .00005927  00000+0  21818-3 0  9996", "line2": "2 57402  97.2888  45.3101 0008175  58.0304 302.1730 15.28192894134482"}}, "geometry": {"type": "Point", "coordinates": [4.762761645066364, 78.90698210111289]}}, {"type": "Feature", "properties": {"norad_id": 57490, "name": "FENGYUN 3F", "group": "weather", "lat": 79.65842791756229, "lon": -59.032334561613325, "alt_km": 817.7764522843636, "timestamp": "2025-12-21T16:47:54.372138+00:00", "meta": {"OBJECT_NAME": "FENGYUN 3F", "OBJECT_ID": "2023-111A", "EPOCH": "2025-12-21T11:16:34.791168", "MEAN_MOTION": 14.19895757, "ECCENTRICITY": 7.73e-05, "INCLINATION": 98.7072, "RA_OF_ASC_NODE": 63.622, "ARG_OF_PERICENTER": 114.3042, "MEAN_ANOMALY": 245.8215, "EPHEMERIS_TYPE": 0, "CLASSIFICATION_TYPE": "U", "NORAD_CAT_ID": 57490, "ELEMENT_SET_NO": 999, "REV_AT_EPOCH": 12364, "BSTAR": 5.611e-05, "MEAN_MOTION_DOT": 7.5e-07, "MEAN_MOTION_DDOT": 0}, "tle": {"line1": "1 57490U 23111A   25355.46984712  .00000075  00000+0  56110-4 0  9992", "line2": "2 57490  98.7072  63.6220 0000773 114.3042 245.8215 14.19895757123640"}}, "geometry": {"type": "Point", "coordinates": [-59.032334561613325, 79.65842791756229]}}, {"type": "Feature", "properties": {"norad_id": 58584, "name": "ARKTIKA-M 2", "group": "weather", "lat": 41.32567292658, "lon": -32.46829645409024, "alt_km": 21279.72356615491, "timestamp": "2025-12-21T16:47:54.372150+00:00", "meta": {"OBJECT_NAME": "ARKTIKA-M 2", "OBJECT_ID": "2023-198A", "EPOCH": "2025-12-20T07:20:06.590112", "MEAN_MOTION": 2.00602824, "ECCENTRICITY": 0.68654675, "INCLINATION": 63.225, "RA_OF_ASC_NODE": 174.0676, "ARG_OF_PERICENTER": 268.0739, "MEAN_ANOMALY": 18.8406, "EPHEMERIS_TYPE": 0, "CLASSIFICATION_TYPE": "U", "NORAD_CAT_ID": 58584, "ELEMENT_SET_NO": 999, "REV_AT_EPOCH": 1473, "BSTAR": 0, "MEAN_MOTION_DOT": 2.01e-06, "MEAN_MOTION_DDOT": 0}, "tle": {"line1": "1 58584U 23198A   25354.30563183  .00000201  00000+0  00000+0 0  9992", "line2": "2 58584  63.2250 174.0676 6865467 268.0739  18.8406  2.00602824 14734"}}, "geometry": {"type": "Point", "coordinates": [-32.46829645409024, 41.32567292658]}}, {"type": "Feature", "properties": {"norad_id": 58645, "name": "TIANMU-1 11", "group": "weather", "lat": 31.232649396281765, "lon": -160.33895180445643, "alt_km": 492.9294231869908, "timestamp": "2025-12-21T16:47:54.372185+00:00", "meta": {"OBJECT_NAME": "TIANMU-1 11", "OBJECT_ID": "2023-205A", "EPOCH": "2025-12-21T12:59:56.069952", "MEAN_MOTION": 15.2469765, "ECCENTRICITY": 0.000752, "INCLINATION": 97.3594, "RA_OF_ASC_NODE": 15.0103, "ARG_OF_PERICENTER": 272.8712, "MEAN_ANOMALY": 87.1665, "EPHEMERIS_TYPE": 0, "CLASSIFICATION_TYPE": "U", "NORAD_CAT_ID": 58645, "ELEMENT_SET_NO": 999, "REV_AT_EPOCH": 11043, "BSTAR": 0.00020525, "MEAN_MOTION_DOT": 5.008e-05, "MEAN_MOTION_DDOT": 0}, "tle": {"line1": "1 58645U 23205A   25355.54162118  .00005008  00000+0  20525-3 0  9997", "line2": "2 58645  97.3594  15.0103 0007520 272.8712  87.1665 15.24697650110437"}}, "geometry": {"type": "Point", "coordinates": [-160.33895180445643, 31.232649396281765]}}, {"type": "Feature", "properties": {"norad_id": 58646, "name": "TIANMU-1 12", "group": "weather", "lat": -3.104649716748873, "lon": 15.369829596741585, "alt_km": 496.6456967007707, "timestamp": "2025-12-21T16:47:54.372196+00:00", "meta": {"OBJECT_NAME": "TIANMU-1 12", "OBJECT_ID": "2023-205B", "EPOCH": "2025-12-21T12:05:11.399424", "MEAN_MOTION": 15.24582591, "ECCENTRICITY": 0.0005834, "INCLINATION": 97.3582, "RA_OF_ASC_NODE": 14.7754, "ARG_OF_PERICENTER": 251.4492, "MEAN_ANOMALY": 108.6112, "EPHEMERIS_TYPE": 0, "CLASSIFICATION_TYPE": "U", "NORAD_CAT_ID": 58646, "ELEMENT_SET_NO": 999, "REV_AT_EPOCH": 11041, "BSTAR": 0.00020233, "MEAN_MOTION_DOT": 4.917e-05, "MEAN_MOTION_DDOT": 0}, "tle": {"line1": "1 58646U 23205B   25355.50360416  .00004917  00000+0  20233-3 0  9999", "line2": "2 58646  97.3582  14.7754 0005834 251.4492 108.6112 15.24582591110418"}}, "geometry": {"type": "Point", "coordinates": [15.369829596741585, -3.104649716748873]}}, {"type": "Feature", "properties": {"norad_id": 58647, "name": "TIANMU-1 13", "group": "weather", "lat": 5.5788263890031855, "lon": -164.10350258591538, "alt_km": 491.6278957712966, "timestamp": "2025-12-21T16:47:54.372207+00:00", "meta": {"OBJECT_NAME": "TIANMU-1 13", "OBJECT_ID": "2023-205C", "EPOCH": "2025-12-21T12:53:08.574720", "MEAN_MOTION": 15.24625882, "ECCENTRICITY": 0.0006355, "INCLINATION": 97.3609, "RA_OF_ASC_NODE": 15.0128, "ARG_OF_PERICENTER": 228.0459, "MEAN_ANOMALY": 132.0238, "EPHEMERIS_TYPE": 0, "CLASSIFICATION_TYPE": "U", "NORAD_CAT_ID": 58647, "ELEMENT_SET_NO": 999, "REV_AT_EPOCH": 11041, "BSTAR": 0.00020801, "MEAN_MOTION_DOT": 5.064e-05, "MEAN_MOTION_DDOT": 0}, "tle": {"line1": "1 58647U 23205C   25355.53690480  .00005064  00000+0  20801-3 0  9995", "line2": "2 58647  97.3609  15.0128 0006355 228.0459 132.0238 15.24625882110411"}}, "geometry": {"type": "Point", "coordinates": [-164.10350258591538, 5.5788263890031855]}}, {"type": "Feature", "properties": {"norad_id": 58648, "name": "TIANMU-1 14", "group": "weather", "lat": -81.03771994550257, "lon": 139.5356044878863, "alt_km": 495.14519582638695, "timestamp": "2025-12-21T16:47:54.372217+00:00", "meta": {"OBJECT_NAME": "TIANMU-1 14", "OBJECT_ID": "2023-205D", "EPOCH": "2025-12-21T12:29:22.599744", "MEAN_MOTION": 15.24609021, "ECCENTRICITY": 0.0007095, "INCLINATION": 97.3541, "RA_OF_ASC_NODE": 14.3372, "ARG_OF_PERICENTER": 234.4454, "MEAN_ANOMALY": 125.6123, "EPHEMERIS_TYPE": 0, "CLASSIFICATION_TYPE": "U", "NORAD_CAT_ID": 58648, "ELEMENT_SET_NO": 999, "REV_AT_EPOCH": 11041, "BSTAR": 0.00020356, "MEAN_MOTION_DOT": 4.952e-05, "MEAN_MOTION_DDOT": 0}, "tle": {"line1": "1 58648U 23205D   25355.52040046  .00004952  00000+0  20356-3 0  9992", "line2": "2 58648  97.3541  14.3372 0007095 234.4454 125.6123 15.24609021110416"}}, "geometry": {"type": "Point", "coordinates": [139.5356044878863, -81.03771994550257]}}, {"type": "Feature", "properties": {"norad_id": 58660, "name": "TIANMU-1 19", "group": "weather", "lat": -82.35832879936335, "lon": -150.16643055439437, "alt_km": 487.3467503188931, "timestamp": "2025-12-21T16:47:54.372227+00:00", "meta": {"OBJECT_NAME": "TIANMU-1 19", "OBJECT_ID": "2023-208A", "EPOCH": "2025-12-21T12:29:04.000416", "MEAN_MOTION": 15.27996532, "ECCENTRICITY": 0.0004558, "INCLINATION": 97.4395, "RA_OF_ASC_NODE": 106.5409, "ARG_OF_PERICENTER": 214.4016, "MEAN_ANOMALY": 145.6929, "EPHEMERIS_TYPE": 0, "CLASSIFICATION_TYPE": "U", "NORAD_CAT_ID": 58660, "ELEMENT_SET_NO": 999, "REV_AT_EPOCH": 11016, "BSTAR": 0.00027966, "MEAN_MOTION_DOT": 7.566e-05, "MEAN_MOTION_DDOT": 0}, "tle": {"line1": "1 58660U 23208A   25355.52018519  .00007566  00000+0  27966-3 0  9997", "line2": "2 58660  97.4395 106.5409 0004558 214.4016 145.6929 15.27996532110163"}}, "geometry": {"type": "Point", "coordinates": [-150.16643055439437, -82.35832879936335]}}, {"type": "Feature", "properties": {"norad_id": 58661, "name": "TIANMU-1 20", "group": "weather", "lat": 20.54050175213408, "lon": 104.3727185803803, "alt_km": 482.33459501953257, "timestamp": "2025-12-21T16:47:54.372237+00:00", "meta": {"OBJECT_NAME": "TIANMU-1 20", "OBJECT_ID": "2023-208B", "EPOCH": "2025-12-21T13:34:01.391232", "MEAN_MOTION": 15.29187896, "ECCENTRICITY": 0.0006618, "INCLINATION": 97.4333, "RA_OF_ASC_NODE": 107.0422, "ARG_OF_PERICENTER": 228.9692, "MEAN_ANOMALY": 131.0976, "EPHEMERIS_TYPE": 0, "CLASSIFICATION_TYPE": "U", "NORAD_CAT_ID": 58661, "ELEMENT_SET_NO": 999, "REV_AT_EPOCH": 11024, "BSTAR": 0.00026188, "MEAN_MOTION_DOT": 7.346e-05, "MEAN_MOTION_DDOT": 0}, "tle": {"line1": "1 58661U 23208B   25355.56529388  .00007346  00000+0  26188-3 0  9994", "line2": "2 58661  97.4333 107.0422 0006618 228.9692 131.0976 15.29187896110243"}}, "geometry": {"type": "Point", "coordinates": [104.3727185803803, 20.54050175213408]}}]}